<?xml version="1.0" encoding="UTF-8"?>
<response xmlns:xsd="http://www.w3.org/2001/XMLSchema" xmlns:xsi="http://www.w3.org/2001/XML-Schema-instance" version="1.2" xsi:noNamespaceSchemaLocation="http://aviationweather.gov/adds/schema/metar1_2.xsd">
  <request_index>19977834</request_index>
  <data_source name="metars" />
  <request type="retrieve" />
  <errors />
  <warnings />
  <time_taken_ms>6</time_taken_ms>
  <data num_results="1">
    <METAR>
      <raw_text>YSSY 190000Z 21006KT 160V240 9999 VCSH FEW015 BKN032 21/18 Q1021 NOSIG</raw_text>
      <station_id>YSSY</station_id>
      <observation_time>2016-04-19T00:00:00Z</observation_time>
      <latitude>-33.95</latitude>
      <longitude>151.17</longitude>
      <temp_c>21.0</temp_c>
      <dewpoint_c>18.0</dewpoint_c>
      <wind_dir_degrees>210</wind_dir_degrees>
      <wind_speed_kt>6</wind_speed_kt>
      <visibility_statute_mi>6.21</visibility_statute_mi>
      <altim_in_hg>30.147638</altim_in_hg>
      <quality_control_flags>
        <no_signal>TRUE</no_signal>
      </quality_control_flags>
      <wx_string>VCSH</wx_string>
      <sky_condition sky_cover="FEW" cloud_base_ft_agl="1500" />
      <sky_condition sky_cover="BKN" cloud_base_ft_agl="3200" />
      <flight_category>VFR</flight_category>
      <metar_type>METAR</metar_type>
      <elevation_m>3.0</elevation_m>
    </METAR>
  </data>
</response>

